[Satellite]
VERSION=1.1
NAME=COSMOS 2500 (755)
NICKNAME=COSMOS 2500 (755)
TLE1=1 40001U 14032A   20157.53101714 -.00000062  00000-0  00000-0 0  9991
TLE2=2 40001  65.6917  27.9221 0004676 197.4084 306.8625  2.13102704 46516
STATUS=0
